[{"OBJECT_NAME":"STARLINK-30944","OBJECT_ID":"2023-183Q","EPOCH":"2026-03-09T22:00:01.999584","MEAN_MOTION":15.26727314,"ECCENTRICITY":0.00014662,"INCLINATION":43.0018,"RA_OF_ASC_NODE":40.0503,"ARG_OF_PERICENTER":255.9222,"MEAN_ANOMALY":58.3795,"EPHEMERIS_TYPE":0,"CLASSIFICATION_TYPE":"U","NORAD_CAT_ID":58451,"ELEMENT_SET_NO":999,"REV_AT_EPOCH":567,"BSTAR":0.0014828424,"MEAN_MOTION_DOT":0.00039715,"MEAN_MOTION_DDOT":0},{"OBJECT_NAME":"CZ-6A DEB","OBJECT_ID":"2022-151DE","EPOCH":"2026-03-09T09:45:43.657920","MEAN_MOTION":15.34292219,"ECCENTRICITY":0.00393756,"INCLINATION":99.0022,"RA_OF_ASC_NODE":218.5596,"ARG_OF_PERICENTER":192.6197,"MEAN_ANOMALY":167.4059,"EPHEMERIS_TYPE":0,"CLASSIFICATION_TYPE":"U","NORAD_CAT_ID":54359,"ELEMENT_SET_NO":999,"REV_AT_EPOCH":10560,"BSTAR":0.0065240017,"MEAN_MOTION_DOT":0.00228186,"MEAN_MOTION_DDOT":0}]
